     2              NAVIGATION DATA                         RINEX VERSION / TYPE
CCRINEXN V1.6.0 UX  CDDIS               06-FEB-14 15:33     PGM / RUN BY / DATE 
IGS BROADCAST EPHEMERIS FILE                                COMMENT             
    0.2421D-07  0.7451D-08 -0.1192D-06  0.1192D-06          ION ALPHA           
    0.1413D+06 -0.1311D+06  0.6554D+05 -0.1966D+06          ION BETA            
    0.000000000000D+00 0.444089209850D-14   405504     1778 DELTA-UTC: A0,A1,T,W
    16                                                      LEAP SECONDS        
                                                            END OF HEADER       
20 14  2  5  4  0  0.0 0.158959068358D-03 0.329691829393D-11 0.000000000000D+00
    0.950000000000D+02 0.533750000000D+02 0.504449583779D-08-0.284412622827D+01
    0.279024243355D-05 0.596369290724D-02 0.100638717413D-04 0.515358522606D+04
    0.273600000000D+06 0.204890966415D-07 0.129235805645D+01-0.204890966415D-07
    0.926895336317D+00 0.167187500000D+03 0.131006287329D+01-0.814819654795D-08
    0.896465912832D-10 0.100000000000D+01 0.177800000000D+04 0.000000000000D+00
    0.280000000000D+01 0.000000000000D+00-0.791624188423D-08 0.950000000000D+02
    0.266418000000D+06 0.400000000000D+01 0.000000000000D+00 0.000000000000D+00
21 14  2  5  4  0  0.0-0.342200510204D-03-0.216004991671D-11 0.000000000000D+00
    0.250000000000D+02-0.621875000000D+02 0.501413743038D-08-0.228727488195D+01
   -0.335648655891D-05 0.210635894910D-01 0.791624188423D-05 0.515356522560D+04
    0.273600000000D+06 0.214204192162D-06 0.299801466403D+00-0.135973095894D-06
    0.932466236619D+00 0.206000000000D+03-0.206611314451D+01-0.799104714490D-08
   -0.139648674071D-09 0.000000000000D+00 0.177800000000D+04 0.000000000000D+00
    0.200000000000D+01 0.000000000000D+00-0.111758708954D-07 0.250000000000D+02
    0.266400000000D+06 0.400000000000D+01 0.000000000000D+00 0.000000000000D+00
22 14  2  5  4  0  0.0 0.211291946471D-03 0.250111042988D-11 0.000000000000D+00
    0.100000000000D+03 0.474687500000D+02 0.515521473539D-08 0.240331370346D+01
    0.249966979027D-05 0.674158253241D-02 0.101234763861D-04 0.515373730087D+04
    0.273600000000D+06 0.745058059692D-07 0.134766332480D+01-0.126659870148D-06
    0.923700569002D+00 0.164343750000D+03-0.206537714604D+01-0.822784272267D-08
    0.170007081477D-09 0.000000000000D+00 0.177800000000D+04 0.000000000000D+00
    0.200000000000D+01 0.000000000000D+00-0.172294676304D-07 0.100000000000D+03
    0.266400000000D+06 0.400000000000D+01 0.000000000000D+00 0.000000000000D+00
23 14  2  5  4  0  0.0 0.665988773107D-05-0.329691829393D-11 0.000000000000D+00
    0.580000000000D+02 0.414687500000D+02 0.498592196938D-08 0.176744182768D+00
    0.226497650147D-05 0.890154973604D-02 0.431761145592D-05 0.515359354973D+04
    0.273600000000D+06 0.175088644028D-06 0.240996305380D+01 0.968575477600D-07
    0.952814635663D+00 0.292218750000D+03-0.280759141895D+01-0.857678582899D-08
    0.105004373854D-09 0.100000000000D+01 0.177800000000D+04 0.000000000000D+00
    0.200000000000D+01 0.000000000000D+00-0.200234353542D-07 0.580000000000D+02
    0.266418000000D+06 0.400000000000D+01 0.000000000000D+00 0.000000000000D+00
24 14  2  5  4  0  0.0-0.227773562074D-04-0.682121026330D-12 0.000000000000D+00
    0.101000000000D+03-0.479687500000D+02 0.472626829662D-08-0.430428818597D+00
   -0.250153243542D-05 0.182565895375D-02 0.647827982903D-05 0.515362742233D+04
    0.273600000000D+06 0.875443220139D-07-0.284678158404D+01 0.149011611938D-07
    0.957881616277D+00 0.254000000000D+03 0.167135688547D+00-0.830141721592D-08
   -0.247153152064D-09 0.000000000000D+00 0.177800000000D+04 0.000000000000D+00
    0.200000000000D+01 0.000000000000D+00 0.325962901115D-08 0.101000000000D+03
    0.266400000000D+06 0.400000000000D+01 0.000000000000D+00 0.000000000000D+00
25 14  2  5  4  0  0.0 0.129649415612D-04 0.193267624127D-11 0.000000000000D+00
    0.124000000000D+03-0.696875000000D+01 0.418481717158D-08-0.260929254415D+01
   -0.381842255592D-06 0.310614483897D-02 0.930391252041D-05 0.515365878105D+04
    0.273600000000D+06 0.223517417908D-07-0.179374609977D+01-0.912696123123D-07
    0.975172117159D+00 0.207531250000D+03 0.609512254186D+00-0.785282710177D-08
    0.236438420038D-09 0.000000000000D+00 0.177800000000D+04 0.000000000000D+00
    0.200000000000D+01 0.000000000000D+00 0.558793544769D-08 0.124000000000D+03
    0.266400000000D+06 0.400000000000D+01 0.000000000000D+00 0.000000000000D+00
26 14  2  5  4  0  0.0 0.174199696630D-03-0.109139364213D-10 0.000000000000D+00
    0.350000000000D+02 0.420312500000D+02 0.452768859640D-08 0.126539650404D+00
    0.213459134102D-05 0.214099714067D-01 0.509433448315D-05 0.515368044472D+04
    0.273600000000D+06-0.318512320519D-06 0.249600794681D+01 0.141561031342D-06
    0.976074838555D+00 0.293250000000D+03 0.126213168343D+01-0.857571435578D-08
    0.450018745087D-10 0.100000000000D+01 0.177800000000D+04 0.000000000000D+00
    0.200000000000D+01 0.000000000000D+00-0.605359673500D-08 0.350000000000D+02
    0.266418000000D+06 0.400000000000D+01 0.000000000000D+00 0.000000000000D+00
27 14  2  5  4  0  0.0-0.175787135959D-04-0.136424205266D-11 0.000000000000D+00
    0.280000000000D+02-0.881250000000D+01 0.485484508093D-08 0.143442958856D+01
   -0.307336449623D-06 0.729507999495D-03 0.515580177307D-05 0.515366984177D+04
    0.273600000000D+06 0.782310962677D-07-0.745026052663D+00 0.242143869400D-07
    0.962361944798D+00 0.278718750000D+03 0.907705075388D-01-0.835820529566D-08
    0.778603860548D-10 0.100000000000D+01 0.177800000000D+04 0.000000000000D+00
    0.200000000000D+01 0.000000000000D+00 0.186264514923D-08 0.280000000000D+02
    0.272460000000D+06 0.000000000000D+00 0.000000000000D+00 0.000000000000D+00
28 14  2  5  4  0  0.0 0.330075621605D-03 0.295585778076D-11 0.000000000000D+00
    0.940000000000D+02-0.365625000000D+01 0.385158900557D-08 0.217662106628D+01
   -0.372529029846D-06 0.192687818780D-01 0.984221696854D-05 0.515366609001D+04
    0.273600000000D+06 0.210478901863D-06-0.172815361635D+01-0.223517417908D-06
    0.985522568319D+00 0.197500000000D+03-0.172779370047D+01-0.747781148086D-08
    0.226080845746D-09 0.100000000000D+01 0.177800000000D+04 0.000000000000D+00
    0.200000000000D+01 0.000000000000D+00-0.107102096081D-07 0.940000000000D+02
    0.268338000000D+06 0.400000000000D+01 0.000000000000D+00 0.000000000000D+00
29 14  2  5  4  0  0.0 0.508530531079D-03 0.272848410532D-11 0.000000000000D+00
    0.109000000000D+03-0.956250000000D+01 0.460304887832D-08-0.203119477775D+01
   -0.605359673500D-06 0.162747188006D-02 0.560469925404D-05 0.515375498962D+04
    0.273600000000D+06-0.614672899246D-07-0.691213809247D+00 0.242143869400D-07
    0.968412793411D+00 0.273187500000D+03-0.100229305010D+01-0.815176812529D-08
    0.732173355102D-10 0.000000000000D+00 0.177800000000D+04 0.000000000000D+00
    0.200000000000D+01 0.000000000000D+00-0.931322574616D-08 0.109000000000D+03
    0.266400000000D+06 0.400000000000D+01 0.000000000000D+00 0.000000000000D+00
30 14  2  5  4  0  0.0-0.154113862664D-03 0.682121026330D-12 0.000000000000D+00
    0.900000000000D+02 0.640625000000D+01 0.531022119203D-08 0.231606191181D+01
    0.292435288429D-06 0.657241651788D-02 0.906921923161D-05 0.515376047325D+04
    0.273600000000D+06-0.633299350738D-07-0.177594362876D+01-0.149011611938D-06
    0.979950314818D+00 0.215843750000D+03 0.839127491542D+00-0.775282293619D-08
    0.245367363393D-09 0.000000000000D+00 0.177800000000D+04 0.000000000000D+00
    0.280000000000D+01 0.630000000000D+02-0.190921127796D-07 0.900000000000D+02
    0.268410000000D+06 0.400000000000D+01 0.000000000000D+00 0.000000000000D+00
31 14  2  5  4  0  0.0 0.332979951054D-03 0.227373675443D-12 0.000000000000D+00
    0.105000000000D+03-0.360625000000D+02 0.420088926961D-08-0.149331322475D+01
   -0.204704701901D-05 0.823560671415D-02 0.790134072304D-05 0.515377253723D+04
    0.273600000000D+06-0.158324837685D-06-0.280837781349D+01-0.154599547386D-06
    0.979428655786D+00 0.241375000000D+03-0.666409727463D+00-0.805533553706D-08
   -0.147506144223D-09 0.000000000000D+00 0.177800000000D+04 0.000000000000D+00
    0.200000000000D+01 0.000000000000D+00-0.130385160446D-07 0.105000000000D+03
    0.266700000000D+06 0.400000000000D+01 0.000000000000D+00 0.000000000000D+00
32 14  2  5  4  0  0.0-0.490887090564D-03 0.613908923697D-11 0.000000000000D+00
    0.960000000000D+02 0.620312500000D+02 0.473376860903D-08-0.883381815278D+00
    0.314600765705D-05 0.114913962316D-01 0.925362110138D-05 0.515350957298D+04
    0.273600000000D+06 0.149011611938D-07 0.143731533638D+01-0.281259417534D-06
    0.947815190661D+00 0.196375000000D+03-0.188063351948D+00-0.815569686037D-08
    0.210365905442D-09 0.100000000000D+01 0.177800000000D+04 0.000000000000D+00
    0.200000000000D+01 0.000000000000D+00-0.325962901115D-08 0.960000000000D+02
    0.266418000000D+06 0.400000000000D+01 0.000000000000D+00 0.000000000000D+00
 2 14  2  5  5 59 44.0 0.476832501590D-03 0.216004991671D-11 0.000000000000D+00
    0.280000000000D+02-0.405937500000D+02 0.519021625678D-08 0.868687894509D+00
   -0.195018947125D-05 0.131133525865D-01 0.851415097713D-05 0.515380325890D+04
    0.280784000000D+06-0.100582838059D-06 0.281604604385D+00 0.182539224625D-06
    0.939562111985D+00 0.207062500000D+03-0.249859606394D+01-0.848678194387D-08
   -0.514664311169D-09 0.100000000000D+01 0.177800000000D+04 0.000000000000D+00
    0.200000000000D+01 0.000000000000D+00-0.200234353542D-07 0.280000000000D+02
    0.276570000000D+06 0.000000000000D+00 0.000000000000D+00 0.000000000000D+00
